{"type":"FeatureCollection","features":[{"type":"Feature","id":0,"geometry":{"type":"Polygon","coordinates":[[[99.023838268293744,3.4827899295844649],[99.024034180900628,3.4887858538902279],[99.022606090291006,3.4903143450014205],[99.022644822448683,3.490682300873877],[99.022566588783732,3.4909442724328468],[99.02241264621739,3.491027398842252],[99.02230665353693,3.4909921335460203],[99.022450500938547,3.4904656693736871],[99.022347031047545,3.4901633933717569],[99.022208230830415,3.4900349259902628],[99.021829683397982,3.4898963822550817],[99.021635666416955,3.4897920733089598],[99.021572271042217,3.4893875509789249],[99.021645457104441,3.4892616018071365],[99.02182211257562,3.4891583237577959],[99.021953342393729,3.4889668830492804],[99.02195586648169,3.4887149853065975],[99.021822112978455,3.4885512526289806],[99.021236626129379,3.4884656065912334],[99.020797511120989,3.4883119499208286],[99.020557764437413,3.4881431784304628],[99.020441676707136,3.4880650901798784],[99.020426534915487,3.4879391421171024],[99.020502242795629,3.4875990816978208],[99.023010266644803,3.4851952988823793],[99.023537463630547,3.484413078330554],[99.022609788463868,3.4828272209172573],[99.023838268293744,3.4827899295844649]]]},"properties":{"FID":0,"ESTATE":"PT MENCARI CINTA SEJATI","BLOCK":"A02","DIVISION":"AFD01","PLANT_YEAR":"2024","REMARKS":"Immature","AREA":16.075849120600001,"Shape_Leng":8565.3902545000001,"Shape_Area":1648080.5004}},{"type":"Feature","id":1,"geometry":{"type":"Polygon","coordinates":[[[99.016037992015512,3.4676213500804556],[99.013594006507077,3.467703702449306],[99.011182880882416,3.4677720189403933],[99.011088241670848,3.4648948112730849],[99.013531924042965,3.4648146746978958],[99.015940364425802,3.4647437992139984],[99.016037992015512,3.4676213500804556]]]},"properties":{"FID":1,"ESTATE":"PT MENCARI CINTA SEJATI","BLOCK":"F02","DIVISION":"AFD02","PLANT_YEAR":"2018","REMARKS":"Mature","AREA":17.195502351199998,"Shape_Leng":1177.1018164,"Shape_Area":85994.212201500006}},{"type":"Feature","id":2,"geometry":{"type":"Polygon","coordinates":[[[99.020910759916674,3.4674571405459615],[99.018492157342763,3.4675386482970589],[99.016037992015512,3.4676213500804556],[99.015940364425802,3.4647437992139984],[99.018361447908077,3.4646725482206722],[99.020839782519801,3.4645996124432963],[99.020910759916674,3.4674571405459615]]]},"properties":{"FID":2,"ESTATE":"PT MENCARI CINTA SEJATI","BLOCK":"F03","DIVISION":"AFD02","PLANT_YEAR":"2018","REMARKS":"Mature","AREA":17.217813313000001,"Shape_Leng":1177.2725146099999,"Shape_Area":86123.626574900001}},{"type":"Feature","id":3,"geometry":{"type":"Polygon","coordinates":[[[99.023323945731036,3.4674110528930355],[99.020910759016374,3.4674571405459815],[99.020839779818857,3.4645996124433562],[99.023229401140227,3.4645260671034532],[99.025571622622635,3.464453979896478],[99.025675509888302,3.4644431614094207],[99.025771437708912,3.4673671375449628],[99.025650488011607,3.4673666124998426],[99.023323945731036,3.4674110528930355]]]},"properties":{"FID":3,"ESTATE":"PT MENCARI CINTA SEJATI","BLOCK":"F04","DIVISION":"AFD02","PLANT_YEAR":"2018","REMARKS":"Mature","AREA":17.1888787205,"Shape_Leng":1168.6490670000001,"Shape_Area":84713.574091799994}},{"type":"Feature","id":4,"geometry":{"type":"Polygon","coordinates":[[[99.012933820607415,3.4566831910527016],[99.013332925171852,3.4579010261368714],[99.013261292636599,3.4579024163854317],[99.013347049397311,3.4601734877721175],[99.010936063935603,3.4602453020418813],[99.008595402711322,3.4603150260022235],[99.008518457060717,3.4580775232821797],[99.010830651315004,3.4579496666524769],[99.010785609614913,3.4558779098184269],[99.010668559563015,3.4557060211746049],[99.01032644982908,3.4553803290417511],[99.010245420647308,3.4551812999034093],[99.010308440206572,3.4550455899416108],[99.010624030242354,3.454694838514313],[99.012933820607415,3.4566831910527016]]]},"properties":{"FID":4,"ESTATE":"PT MENCARI CINTA SEJATI","BLOCK":"H02","DIVISION":"AFD02","PLANT_YEAR":"2015","REMARKS":"Mature","AREA":19.7056544611,"Shape_Leng":1018.7960336800001,"Shape_Area":64849.529490599998}},{"type":"Feature","id":5,"geometry":{"type":"Polygon","coordinates":[[[99.020661684445358,3.4599555708232095],[99.01822622269512,3.4600281343195713],[99.015829973304378,3.4600995229177056],[99.013347049397311,3.4601734877721175],[99.013261292591565,3.4579024140469579],[99.015699325537767,3.4578550189127997],[99.015682843631254,3.4566454045402271],[99.01574122201626,3.4566528058118307],[99.016178918628086,3.4571093851831742],[99.016557465532955,3.4574478823531507],[99.016849262501694,3.4576486197962266],[99.016892638105702,3.4582547668693242],[99.01705825203247,3.4583807196072276],[99.017365822218338,3.4584555045075063],[99.017637903316071,3.4589160189302346],[99.017949415471676,3.459002610781972],[99.018227264563464,3.4590026108919769],[99.018394997483796,3.4590026112607144],[99.018710453863818,3.4589002746484803],[99.019018022962655,3.4586798577784097],[99.019203353976451,3.4583177431252348],[99.020591244762244,3.4576265253434322],[99.020661684445358,3.4599555708232095]]]},"properties":{"FID":5,"ESTATE":"PT MENCARI CINTA SEJATI","BLOCK":"H03","DIVISION":"AFD02","PLANT_YEAR":"2015","REMARKS":"Mature","AREA":18.0272188374,"Shape_Leng":1046.49121221,"Shape_Area":68284.954415100001}},{"type":"Feature","id":6,"geometry":{"type":"Polygon","coordinates":[[[99.012256505432774,3.4528804724167417],[99.012346125786735,3.4528938915481824],[99.012630036947129,3.4539408789573445],[99.012890287286339,3.4543384180055354],[99.013079561506984,3.4548461665060675],[99.013083505116882,3.4551964747000286],[99.013268834836268,3.455275195350167],[99.013588235034987,3.455255514532166],[99.013812997465763,3.45536178800088],[99.014491228614673,3.4564678122729076],[99.014790911236489,3.4565937642563691],[99.015244379611275,3.4565898288551069],[99.015682843631254,3.4566454045402271],[99.015699325537824,3.4578550220792472],[99.013332925171838,3.4579010261368714],[99.012933820607415,3.4566831910526847],[99.01062403024234,3.4546948385142962],[99.012256505432774,3.4528804724167417]]]},"properties":{"FID":6,"ESTATE":"PT MENCARI CINTA SEJATI","BLOCK":"I01","DIVISION":"AFD02","PLANT_YEAR":"2013","REMARKS":"Mature","AREA":11.651802748,"Shape_Leng":1792.4148113599999,"Shape_Area":116518.02748}},{"type":"Feature","id":7,"geometry":{"type":"Polygon","coordinates":[[[99.025026966323026,3.45982549451919],[99.023076102980809,3.4598836285208292],[99.020661684445358,3.4599555708232095],[99.020591244762244,3.4576265253434322],[99.021068488123177,3.4573888424515982],[99.021364227901032,3.4574045866119771],[99.021742775616261,3.4573770344436583],[99.022125266133074,3.4574833068078132],[99.022464380979798,3.4574714988316018],[99.022720689528384,3.4573809704085305],[99.022874474461403,3.4571841685927533],[99.022986796938142,3.4571791013678528],[99.02418361764741,3.4571251288808149],[99.025026966323026,3.45982549451919]]]},"properties":{"FID":7,"ESTATE":"PT MENCARI CINTA SEJATI","BLOCK":"H04","DIVISION":"AFD02","PLANT_YEAR":"2015","REMARKS":"Mature","AREA":12.659021743,"Shape_Leng":961.79706957099995,"Shape_Area":52539.553815300002}},{"type":"Feature","id":8,"geometry":{"type":"Polygon","coordinates":[[[99.025026966323011,3.4598254945191567],[99.025582359737726,3.4616038385152459],[99.025675509888302,3.4644431614094207],[99.025571620822021,3.4644539798965268],[99.023229401140284,3.4645260698175271],[99.023076102980781,3.4598836276161156],[99.025026966323011,3.4598254945191567]]]},"properties":{"FID":8,"ESTATE":"PT MENCARI CINTA SEJATI","BLOCK":"G07","DIVISION":"AFD02","PLANT_YEAR":"2017","REMARKS":"Mature","AREA":13.409297219000001,"Shape_Leng":1522.12844176,"Shape_Area":134092.97219}},{"type":"Feature","id":9,"geometry":{"type":"Polygon","coordinates":[[[99.023076102980781,3.4598836276161156],[99.023229401140284,3.4645260698175271],[99.020839779818886,3.4645996133480192],[99.020661684445329,3.4599555699185123],[99.023076102980781,3.4598836276161156]]]},"properties":{"FID":9,"ESTATE":"PT MENCARI CINTA SEJATI","BLOCK":"G06","DIVISION":"AFD02","PLANT_YEAR":"2017","REMARKS":"Mature","AREA":13.707958575699999,"Shape_Leng":1560.97934442,"Shape_Area":137079.58575699999}},{"type":"Feature","id":10,"geometry":{"type":"Polygon","coordinates":[[[99.020661684445329,3.4599555699185123],[99.020839779818886,3.4645996133480192],[99.018361448808477,3.4646725536488336],[99.018226222695134,3.4600281352242512],[99.020661684445329,3.4599555699185123]]]},"properties":{"FID":10,"ESTATE":"PT MENCARI CINTA SEJATI","BLOCK":"G05","DIVISION":"AFD02","PLANT_YEAR":"2017","REMARKS":"Mature","AREA":14.0229656153,"Shape_Leng":1573.3201687999999,"Shape_Area":140229.65615299999}},{"type":"Feature","id":11,"geometry":{"type":"Polygon","coordinates":[[[99.018226222695134,3.4600281352242512],[99.018361448808477,3.4646725536488336],[99.015940364425887,3.4647438037374814],[99.015825441171529,3.4600996605077712],[99.018226222695134,3.4600281352242512]]]},"properties":{"FID":11,"ESTATE":"PT MENCARI CINTA SEJATI","BLOCK":"G04","DIVISION":"AFD02","PLANT_YEAR":"2017","REMARKS":"Mature","AREA":13.7580023245,"Shape_Leng":1562.8937468199999,"Shape_Area":137580.02324499999}},{"type":"Feature","id":12,"geometry":{"type":"Polygon","coordinates":[[[99.015825441171529,3.4600996605077712],[99.015940364425887,3.4647438037374814],[99.013531922692493,3.4648146756026295],[99.013347239361664,3.4601734868647198],[99.015825441171529,3.4600996605077712]]]},"properties":{"FID":12,"ESTATE":"PT MENCARI CINTA SEJATI","BLOCK":"G03","DIVISION":"AFD02","PLANT_YEAR":"2017","REMARKS":"Mature","AREA":13.9401811567,"Shape_Leng":1569.9252054000001,"Shape_Area":139401.811567}},{"type":"Feature","id":13,"geometry":{"type":"Polygon","coordinates":[[[99.013347239361664,3.4601734868647198],[99.013531922692493,3.4648146756026295],[99.011088244371805,3.4648948121777159],[99.010935128518994,3.4602453373359658],[99.013347239361664,3.4601734868647198]]]},"properties":{"FID":13,"ESTATE":"PT MENCARI CINTA SEJATI","BLOCK":"G02","DIVISION":"AFD02","PLANT_YEAR":"2017","REMARKS":"Mature","AREA":13.8626429571,"Shape_Leng":1567.23656525,"Shape_Area":138626.42957099999}},{"type":"Feature","id":14,"geometry":{"type":"Polygon","coordinates":[[[99.010935128518994,3.4602453373359658],[99.011088244371805,3.4648948121777159],[99.008753869958781,3.4649263012237927],[99.008595402711308,3.4603150241927967],[99.010935128518994,3.4602453373359658]]]},"properties":{"FID":14,"ESTATE":"PT MENCARI CINTA SEJATI","BLOCK":"G01","DIVISION":"AFD02","PLANT_YEAR":"2017","REMARKS":"Mature","AREA":13.295538582300001,"Shape_Leng":1543.5186638499999,"Shape_Area":132955.38582299999}},{"type":"Feature","id":15,"geometry":{"type":"Polygon","coordinates":[[[99.007326185067356,3.4622153806994054],[99.00678156442018,3.4622510714947219],[99.006752859958254,3.4621277215247912],[99.00640765010111,3.4610884509191591],[99.006246429582916,3.4603955092233281],[99.006176932035117,3.4596564815638309],[99.005900662895002,3.4589479236303271],[99.005762790021294,3.4585943086760067],[99.005371710198887,3.4578552909762643],[99.004696772108062,3.4573192608144274],[99.004093281495813,3.4569152597230515],[99.003647059645573,3.4560309216311751],[99.004105369471162,3.4555703712929984],[99.004501510693927,3.4559322515481083],[99.005356790065875,3.4561946005657536],[99.005842960259713,3.4566831402205249],[99.006050029921497,3.4574340385328943],[99.006266110341301,3.457940670897838],[99.00641916035822,3.4581216013909297],[99.006928031445909,3.4581159488620368],[99.008048709746717,3.4581034994776485],[99.008518457060717,3.4580775232821797],[99.008595403611622,3.4603150241928051],[99.00832430726237,3.4603088764817556],[99.007326185067356,3.4622153806994054]]]},"properties":{"FID":15,"ESTATE":"PT MENCARI CINTA SEJATI","BLOCK":"H01","DIVISION":"AFD02","PLANT_YEAR":"2018","REMARKS":"Mature","AREA":14.0602475346,"Shape_Leng":1282.2004517,"Shape_Area":93475.037505200002}},{"type":"Feature","id":16,"geometry":{"type":"Polygon","coordinates":[[[99.011182882683045,3.467772018940372],[99.008875494234388,3.4677875807751009],[99.006524891534454,3.4679238068024696],[99.006692837739905,3.4678148419736452],[99.007207661624378,3.4677115614586933],[99.007510499397824,3.4675679762644269],[99.007803241923682,3.4674294302248145],[99.007914283211591,3.4673714924309493],[99.007752769859181,3.4671372230962918],[99.007677060162919,3.4670515759432803],[99.007634158600709,3.4668374577643579],[99.007568543308267,3.4666485310848696],[99.007316178682245,3.4665049457197887],[99.007147094149857,3.4664092227147116],[99.007102031928966,3.4663076055494724],[99.007078955674743,3.4662555620570097],[99.007116809894498,3.4661019015046857],[99.007174854910389,3.4658877825330698],[99.007111762820401,3.4657492366297857],[99.006964434511218,3.4657864443457855],[99.00707529985317,3.463513320576904],[99.00678156442018,3.4622510714947219],[99.007326185067356,3.4622153806994054],[99.00832430726237,3.4603088764817556],[99.008595403611622,3.4603150241928051],[99.008753870633996,3.4649263000929458],[99.011088244371791,3.4648948112730533],[99.011182882683045,3.467772018940372]]]},"properties":{"FID":16,"ESTATE":"PT MENCARI CINTA SEJATI","BLOCK":"F01","DIVISION":"AFD02","PLANT_YEAR":"2018","REMARKS":"Mature","AREA":21.273824818600001,"Shape_Leng":1636.19805247,"Shape_Area":88004.756928500006}},{"type":"Feature","id":17,"geometry":{"type":"Polygon","coordinates":[[[99.020911621514799,3.4674571242422791],[99.020997272589952,3.4694930376560662],[99.016090960747846,3.4696311902419428],[99.016037992015484,3.4676213491757593],[99.020910759016374,3.4674571405459647],[99.020911621514799,3.4674571242422791]]]},"properties":{"FID":17,"ESTATE":"PT MENCARI CINTA SEJATI","BLOCK":"E03","DIVISION":"AFD01","PLANT_YEAR":"2022","REMARKS":"Mature","AREA":12.157375483199999,"Shape_Leng":1534.2734215400001,"Shape_Area":121573.75483200001}},{"type":"Feature","id":18,"geometry":{"type":"Polygon","coordinates":[[[99.01036361572632,3.4677775433432552],[99.010345220850141,3.4697929467330382],[99.008707508440054,3.4698390522323543],[99.008165992225486,3.4699741827871731],[99.007647050832006,3.4703943913535462],[99.007056209486095,3.4700421309605254],[99.006576231065381,3.4696344503352754],[99.006093479595933,3.4691496267769506],[99.005897887720224,3.4686234501755719],[99.005905459065175,3.4684320033419684],[99.00605435340438,3.4682430760992817],[99.006339526119959,3.4680440732074236],[99.006524891534454,3.4679238068024696],[99.008875496935318,3.4677875807750422],[99.01036361572632,3.4677775433432552]]]},"properties":{"FID":18,"ESTATE":"PT MENCARI CINTA SEJATI","BLOCK":"E01","DIVISION":"AFD01","PLANT_YEAR":"2015","REMARKS":"Mature","AREA":10.7591563809,"Shape_Leng":1362.4656483399999,"Shape_Area":107591.563809}},{"type":"Feature","id":19,"geometry":{"type":"Polygon","coordinates":[[[99.016037992015484,3.4676213491757593],[99.016090960747846,3.4696311902419428],[99.010345220850141,3.4697929467330382],[99.01036361572632,3.4677775433432552],[99.011182880882416,3.4677720189403933],[99.01359400605692,3.4677037024492954],[99.016037992015484,3.4676213491757593]]]},"properties":{"FID":19,"ESTATE":"PT MENCARI CINTA SEJATI","BLOCK":"E02","DIVISION":"AFD01","PLANT_YEAR":"2015","REMARKS":"Mature","AREA":14.0339864703,"Shape_Leng":1713.98606139,"Shape_Area":140339.864703}},{"type":"Feature","id":20,"geometry":{"type":"Polygon","coordinates":[[[99.025650487111292,3.4673666124998497],[99.025771437708926,3.467367137544946],[99.025836713008218,3.4693567431372676],[99.020997272589952,3.4694930376560662],[99.020911621514799,3.4674571242422791],[99.025650487111292,3.4673666124998497]]]},"properties":{"FID":20,"ESTATE":"PT MENCARI CINTA SEJATI","BLOCK":"E04","DIVISION":"AFD01","PLANT_YEAR":"2022","REMARKS":"Mature","AREA":12.0027714574,"Shape_Leng":1522.90472854,"Shape_Area":120027.714574}},{"type":"Feature","id":21,"geometry":{"type":"Polygon","coordinates":[[[99.016090960846526,3.4696311910535629],[99.016131599686972,3.4715033224272052],[99.015891064116204,3.4714678980310354],[99.015251136586642,3.4713971947008599],[99.014949105645414,3.4713810733016728],[99.014693915362926,3.4713020772766496],[99.014535631357575,3.4710973311877216],[99.013921879934358,3.47108765838236],[99.013505175551273,3.4711070041803471],[99.013293592864358,3.4711376357430268],[99.012910805675233,3.4711972850965274],[99.012826818025445,3.4712698339802284],[99.012726680448878,3.4714729671897047],[99.012662074353869,3.4716503060650243],[99.01232623538462,3.4716861311353071],[99.010917450281156,3.471019168936273],[99.010305520636805,3.4710429187269836],[99.009640690100667,3.4708761193490441],[99.009142420044029,3.470820719703791],[99.00869929225226,3.4706352598932644],[99.008108460258214,3.4705982295401916],[99.007647050832006,3.4703943913535462],[99.008165992225486,3.4699741827871731],[99.008707508440054,3.4698390522323543],[99.016090960846526,3.4696311910535629]]]},"properties":{"FID":21,"ESTATE":"PT MENCARI CINTA SEJATI","BLOCK":"D01","DIVISION":"AFD01","PLANT_YEAR":" 2015","REMARKS":"Mature","AREA":13.9234379227,"Shape_Leng":8565.3902545000001,"Shape_Area":1648080.5004}},{"type":"Feature","id":22,"geometry":{"type":"Polygon","coordinates":[[[99.020997272304001,3.469493036531953],[99.021154102926062,3.4740184750542347],[99.020570481858996,3.4730805724657889],[99.020266999514973,3.4730630955600961],[99.020033551627179,3.4728125994860473],[99.019595835826863,3.4727834721980608],[99.01940324152153,3.4725271504112345],[99.019321534356564,3.4721834466381249],[99.019245663545988,3.4719212999427698],[99.019082250114323,3.4715834206969167],[99.018877982201872,3.4712513678733337],[99.018635962589585,3.4711863317061113],[99.018044051596846,3.4716332089845987],[99.01756692518849,3.4714639617722676],[99.017283014493003,3.4714285372421134],[99.016663932646907,3.4715033216926181],[99.016131599686972,3.4715033224272052],[99.016090960846526,3.4696311910535629],[99.020997272304001,3.469493036531953]]]},"properties":{"FID":22,"ESTATE":"PT MENCARI CINTA SEJATI","BLOCK":"D02","DIVISION":"AFD01","PLANT_YEAR":"2022","REMARKS":"Mature","AREA":15.018364912399999,"Shape_Leng":8565.3902545000001,"Shape_Area":1648080.5004}},{"type":"Feature","id":23,"geometry":{"type":"Polygon","coordinates":[[[99.023375375231183,3.4694260625177016],[99.023640853525137,3.4767479429073056],[99.022163766186267,3.4767855741223554],[99.022099568084499,3.4746651035554743],[99.022029533628313,3.4744961639903456],[99.021901137424749,3.4743680037864961],[99.021550965143859,3.4742048906931258],[99.021154100887046,3.4740184740964577],[99.020997272304001,3.469493036531953],[99.023375375231183,3.4694260625177016]]]},"properties":{"FID":23,"ESTATE":"PT MENCARI CINTA SEJATI","BLOCK":"D03","DIVISION":"AFD01","PLANT_YEAR":"2022","REMARKS":"Mature","AREA":18.570997411299999,"Shape_Leng":8565.3902545000001,"Shape_Area":1648080.5004}},{"type":"Feature","id":24,"geometry":{"type":"Polygon","coordinates":[[[99.025836713008218,3.4693567431372676],[99.026077166901175,3.476685866194309],[99.023640853525137,3.4767479429073056],[99.023375375231183,3.4694260625177016],[99.025836713008218,3.4693567431372676]]]},"properties":{"FID":24,"ESTATE":"PT MENCARI CINTA SEJATI","BLOCK":"D04","DIVISION":"AFD01","PLANT_YEAR":"2022","REMARKS":"Mature","AREA":22.044399280899999,"Shape_Leng":8565.3902545000001,"Shape_Area":1648080.5004}},{"type":"Feature","id":25,"geometry":{"type":"Polygon","coordinates":[[[99.026275004043384,3.482715952548844],[99.026371770561951,3.4856654504442917],[99.026372094046451,3.486192231471251],[99.026001432744863,3.4866802836999438],[99.024034180900628,3.4887858538902279],[99.023838268293744,3.4827899295844649],[99.026275004043384,3.482715952548844]]]},"properties":{"FID":25,"ESTATE":"PT MENCARI CINTA SEJATI","BLOCK":"A03","DIVISION":"AFD01","PLANT_YEAR":"2024","REMARKS":"Immature","AREA":14.262124671900001,"Shape_Leng":8565.3902545000001,"Shape_Area":1648080.5004}},{"type":"Feature","id":26,"geometry":{"type":"Polygon","coordinates":[[[99.026077166901175,3.476685866194309],[99.026275004043384,3.482715952548844],[99.023838268293744,3.4827899295844649],[99.02364085335887,3.4767479407917135],[99.026077166901175,3.476685866194309]]]},"properties":{"FID":26,"ESTATE":"PT MENCARI CINTA SEJATI","BLOCK":"B02","DIVISION":"AFD01","PLANT_YEAR":"2023","REMARKS":"Mature","AREA":18.0724665497,"Shape_Leng":8565.3902545000001,"Shape_Area":1648080.5004}},{"type":"Feature","id":27,"geometry":{"type":"Polygon","coordinates":[[[99.018635962589585,3.4711863317061113],[99.018877982201872,3.4712513678733337],[99.019082250114323,3.4715834206969167],[99.019245663545988,3.4719212999427698],[99.019321534356564,3.4721834466381249],[99.01940324152153,3.4725271504112345],[99.019595835826863,3.4727834721980608],[99.020033551627179,3.4728125994860473],[99.020266999514973,3.4730630955600961],[99.020570481858996,3.4730805724657889],[99.021154100887046,3.4740184740964577],[99.021550965143859,3.4742048906931258],[99.021901137424749,3.4743680037864961],[99.022029533628313,3.4744961639903456],[99.022099568084499,3.4746651035554743],[99.022163766110893,3.4767855718618796],[99.022224317127993,3.4786012965638644],[99.021859554410241,3.4795024207683416],[99.021522148087826,3.4798756138846367],[99.0215495053815,3.4803853401510949],[99.0214282630361,3.4807883720888086],[99.021174954939767,3.4800758164797347],[99.021253818442545,3.4796979667425911],[99.021387887502442,3.4794224515425669],[99.021230160122798,3.4791115122789051],[99.021001454112493,3.478678559784151],[99.021076374020936,3.4783754924647989],[99.021198613684547,3.4781432727713595],[99.021285363698254,3.4776788314912577],[99.020836270952714,3.4764598425656721],[99.01996044836676,3.4748370786608134],[99.019715970556845,3.4744552913315894],[99.019660765178116,3.4742112610706788],[99.0195582418214,3.473923937468939],[99.019384740705434,3.4737507556327789],[99.018501463995548,3.4737468189784244],[99.018292474020086,3.4736484208751781],[99.018036166496984,3.473191849179833],[99.017890267622974,3.4727746369172685],[99.01796518880667,3.4725581602593332],[99.018142632752216,3.4724440165383648],[99.018454145104911,3.4723101938886374],[99.018469917773857,3.4721724352151226],[99.018229383212741,3.4718103263847899],[99.018044051596846,3.4716332089845987],[99.018635962589585,3.4711863317061113]]]},"properties":{"FID":27,"ESTATE":"PT MENCARI CINTA SEJATI","BLOCK":"C01","DIVISION":"AFD01","PLANT_YEAR":"2022","REMARKS":"Mature","AREA":15.1484081493,"Shape_Leng":8565.3902545000001,"Shape_Area":1648080.5004}},{"type":"Feature","id":28,"geometry":{"type":"Polygon","coordinates":[[[99.02364085335887,3.4767479407917135],[99.023838268293744,3.4827899295844649],[99.020090578865705,3.482903693589956],[99.020333424187612,3.4822654317738841],[99.020729372980654,3.4820119765499333],[99.020931264964943,3.4819011411618752],[99.021044829079855,3.4816870274133711],[99.021435205589071,3.4808078983895023],[99.0214282630361,3.4807883720888086],[99.0215495053815,3.4803853401510949],[99.021522148087826,3.4798756138846367],[99.021859554410241,3.4795024207683416],[99.022224317127993,3.4786012965638644],[99.022163766110893,3.4767855718618796],[99.02364085335887,3.4767479407917135]]]},"properties":{"FID":28,"ESTATE":"PT MENCARI CINTA SEJATI","BLOCK":"B01","DIVISION":"AFD01","PLANT_YEAR":"2023","REMARKS":"Mature","AREA":16.180341329499999,"Shape_Leng":8565.3902545000001,"Shape_Area":1648080.5004}},{"type":"Feature","id":29,"geometry":{"type":"Polygon","coordinates":[[[99.022609788463868,3.4828272209172573],[99.023537463630547,3.484413078330554],[99.023010266644803,3.4851952988823793],[99.020502242795629,3.4875990816978208],[99.020199406652608,3.4873119174147811],[99.020138838328833,3.4870826900330161],[99.020073223859129,3.4869466647120122],[99.019719912969691,3.486747666759598],[99.019507887575998,3.4866876490253915],[99.019498619782851,3.4866538985652045],[99.019484701528725,3.4865201781990431],[99.019593731474501,3.4863890273267151],[99.019621333155939,3.4860544749594857],[99.019617390376922,3.4849130622362208],[99.019542010058544,3.4847666484303592],[99.019727020332425,3.4838592299907356],[99.020090578865705,3.482903693589956],[99.022609788463868,3.4828272209172573]]]},"properties":{"FID":29,"ESTATE":"PT MENCARI CINTA SEJATI","BLOCK":"A01","DIVISION":"AFD01","PLANT_YEAR":"2024","REMARKS":"Immature","AREA":15.511755086499999,"Shape_Leng":8565.3902545000001,"Shape_Area":1648080.5004}}]}