{"type":"FeatureCollection","features":[{"type":"Feature","id":0,"geometry":{"type":"Polygon","coordinates":[[[99.02607716690116,3.4766858661943094],[99.026275004043384,3.4827159525488223],[99.026371770561965,3.4856654504442917],[99.026372094046451,3.4861922314712674],[99.026001432744863,3.4866802836999775],[99.024034180900642,3.4887858538902634],[99.022606090291021,3.4903143450014369],[99.022644822448697,3.4906823008738939],[99.022566588783747,3.4909442724328641],[99.02241264621739,3.4910273988422684],[99.022306653536944,3.4909921335460203],[99.022450500938561,3.4904656693737035],[99.022347031047545,3.4901633933717733],[99.022208230830415,3.4900349259902628],[99.021829683397982,3.4898963822550653],[99.021635666416969,3.4897920733089434],[99.021572271042217,3.4893875509789249],[99.021645457104455,3.4892616018071534],[99.02182211257562,3.4891583237578128],[99.021953342393729,3.4889668830492968],[99.02195586648169,3.4887149853065975],[99.021822112978455,3.4885512526289979],[99.021236626129379,3.4884656065912334],[99.020797511120989,3.4883119499208286],[99.020557764437413,3.4881431784304628],[99.020441676707151,3.4880650901798953],[99.020426534915501,3.4879391421171024],[99.020502242795644,3.4875990816978324],[99.020199406652623,3.4873119174147811],[99.020138838328833,3.4870826900330161],[99.020073223859129,3.4869466647120122],[99.019719912969705,3.4867476667596149],[99.019507887575998,3.4866876490254253],[99.019498619782851,3.4866538985652045],[99.019484701528725,3.4865201781990596],[99.019593731474515,3.4863890273267151],[99.019621333155953,3.4860544749595026],[99.019617390376922,3.4849130622362372],[99.019542010058544,3.4847666484303765],[99.019727020332425,3.4838592299907356],[99.02009057886572,3.4829036935899791],[99.020333424187612,3.4822654317739015],[99.020729372980654,3.4820119765499498],[99.020931264964958,3.4819011411618925],[99.021044829079855,3.481687027413388],[99.021435205589086,3.4808078983895188],[99.021428263036114,3.4807883720888295],[99.021174954939767,3.4800758164797516],[99.021253818442531,3.479697966742608],[99.021387887502456,3.4794224515425838],[99.021230160122798,3.4791115122789216],[99.021001454112493,3.478678559784151],[99.021076374020936,3.4783754924648154],[99.021198613684547,3.4781432727713759],[99.021285363698254,3.4776788314912412],[99.020836270952714,3.4764598425656885],[99.01996044836676,3.4748370786608134],[99.019715970556845,3.4744552913316058],[99.019660765178116,3.4742112610706957],[99.019558241821414,3.473923937468939],[99.019384740705434,3.4737507556328122],[99.018501463995548,3.4737468189784244],[99.018292474020086,3.4736484208751781],[99.018036166496998,3.473191849179833],[99.017890267622988,3.4727746369172685],[99.01796518880667,3.4725581602593332],[99.018142632752216,3.4724440165383648],[99.018454145104911,3.4723101938886374],[99.018469917773857,3.4721724352151226],[99.018229383212756,3.4718103263847899],[99.018044051596846,3.4716332089845832],[99.01756692518849,3.4714639617722676],[99.017283014493003,3.4714285372421303],[99.016663932646907,3.4715033216926008],[99.016131599686972,3.4715033224272029],[99.015891064116204,3.4714678980310523],[99.015251136586656,3.4713971947008768],[99.014949105645414,3.4713810733017065],[99.014693915362926,3.4713020772766496],[99.014535631357589,3.4710973311877389],[99.013921879934358,3.47108765838236],[99.013505175551273,3.471107004180364],[99.013293592864372,3.4711376357430268],[99.012910805675233,3.4711972850965274],[99.012826818025445,3.4712698339802448],[99.012726680448878,3.4714729671897047],[99.012662074353884,3.4716503060650243],[99.012326235384648,3.4716861311353071],[99.010917450281156,3.471019168936273],[99.010305520636805,3.4710429187270173],[99.009640690100667,3.4708761193490441],[99.009142420044043,3.470820719703791],[99.008699292252274,3.4706352598932644],[99.008108460258214,3.4705982295402089],[99.00764705083202,3.4703943913535631],[99.007056209486095,3.4700421309605418],[99.006576231065381,3.4696344503352918],[99.006093479595947,3.4691496267769684],[99.005897887720238,3.4686234501755888],[99.00590545906519,3.4684320033420017],[99.00605435340438,3.4682430760992817],[99.006339526119959,3.4680440732074405],[99.006524891534454,3.4679238068024696],[99.006692837739905,3.4678148419736452],[99.007207661624378,3.4677115614586933],[99.007510499397824,3.4675679762644269],[99.007803241923682,3.4674294302248145],[99.007914283211591,3.4673714924309493],[99.007752769859181,3.4671372230962918],[99.007677060162919,3.4670515759432803],[99.007634158600709,3.4668374577643579],[99.007568543308267,3.4666485310848696],[99.007316178682245,3.4665049457197887],[99.007147094149857,3.4664092227147116],[99.007102031928966,3.4663076055494724],[99.007078955674743,3.4662555620570097],[99.007116809894498,3.4661019015046857],[99.007174854910389,3.4658877825330698],[99.007111762820401,3.4657492366297857],[99.006964434511218,3.4657864443457855],[99.00707529985317,3.463513320576904],[99.00678156442018,3.4622510714947219],[99.006752859958254,3.4621277215247912],[99.00640765010111,3.4610884509191591],[99.006246429582916,3.4603955092233281],[99.006176932035117,3.4596564815638309],[99.005900662895002,3.4589479236303271],[99.005762790021294,3.4585943086760067],[99.005371710198887,3.4578552909762643],[99.004696772108062,3.4573192608144274],[99.004093281495813,3.4569152597230515],[99.003647059645573,3.4560309216311751],[99.004105369471162,3.4555703712929984],[99.004501510693927,3.4559322515481083],[99.005356790065875,3.4561946005657536],[99.005842960259713,3.4566831402205249],[99.006050029921497,3.4574340385328943],[99.006266110341301,3.457940670897838],[99.00641916035822,3.4581216013909297],[99.006928031445909,3.4581159488620368],[99.008048709746717,3.4581034994776485],[99.008518457060717,3.4580775232821797],[99.010830651315004,3.4579496666524769],[99.010785609614913,3.4558779098184269],[99.010668559563015,3.4557060211746049],[99.01032644982908,3.4553803290417511],[99.010245420647308,3.4551812999034093],[99.010308440206572,3.4550455899416108],[99.010624030242354,3.454694838514313],[99.012256505432788,3.4528804724167586],[99.012346125786735,3.4528938915481824],[99.012630036947129,3.4539408789573445],[99.012890287286353,3.4543384180055523],[99.013079561506984,3.4548461665060675],[99.013083505116882,3.4551964747000286],[99.013268834836282,3.455275195350167],[99.013588235034987,3.4552555145321828],[99.013812997465777,3.4553617880008973],[99.014491228614688,3.4564678122729076],[99.014790911236489,3.4565937642563691],[99.015244379611289,3.4565898288551238],[99.015682843631254,3.4566454045402271],[99.01574122201626,3.4566528058118307],[99.016178918628086,3.4571093851831742],[99.016557465532955,3.4574478823531507],[99.016849262501694,3.4576486197962266],[99.016892638105702,3.4582547668693242],[99.01705825203247,3.4583807196072276],[99.017365822218338,3.4584555045075063],[99.017637903316071,3.4589160189302346],[99.017949415471676,3.459002610781972],[99.018227264563464,3.4590026108919769],[99.018394997483796,3.4590026112607144],[99.018710453863818,3.4589002746484803],[99.019018022962655,3.4586798577784097],[99.019203353976451,3.4583177431252348],[99.020591244762244,3.4576265253434322],[99.021068488123177,3.4573888424515982],[99.021364227901032,3.4574045866119771],[99.021742775616261,3.4573770344436583],[99.022125266133074,3.4574833068078132],[99.022464380979798,3.4574714988316018],[99.022720689528384,3.4573809704085305],[99.022874474461403,3.4571841685927533],[99.022986796938142,3.4571791013678528],[99.02418361764741,3.4571251288808149],[99.025026966323026,3.45982549451919],[99.025582359737726,3.4616038385152459],[99.025675509888302,3.4644431614094207],[99.025771437708912,3.4673671375449628],[99.025836713008246,3.4693567431373018],[99.02607716690116,3.4766858661943094]]]},"properties":{"FID":0,"ESTATE":"PT MENCARI CINTA SEJATI","AREA":458.73793802500001,"Shape_Leng":8565.3902545000001,"Shape_Area":1648080.5004}}]}